{
  "type": "FeatureCollection",
  "features": [
    {
      "type": "Feature",
      "properties": {
        "norad_id": 45358,
        "name": "COSMOS 2545 (760)",
        "group": "gnss",
        "lat": 60.063440979244184,
        "lon": 83.05075169560247,
        "alt_km": 19147.164419360743,
        "timestamp": "2025-12-08T08:59:01.009293+00:00",
        "meta_object_name": "COSMOS 2545 (760)",
        "meta_object_id": "2020-018A",
        "meta_epoch": "2025-12-07T07:07:55.705728",
        "meta_mean_motion": 2.13102386,
        "meta_eccentricity": 0.00117441,
        "meta_inclination": 64.4728,
        "meta_ra_of_asc_node": 319.1607,
        "meta_arg_of_pericenter": 249.0045,
        "meta_mean_anomaly": 110.8633,
        "meta_ephemeris_type": 0,
        "meta_classification_type": "U",
        "meta_norad_cat_id": 45358,
        "meta_element_set_no": 999,
        "meta_rev_at_epoch": 4457,
        "meta_bstar": 0,
        "meta_mean_motion_dot": -5e-07,
        "meta_mean_motion_ddot": 0,
        "tle_line1": "1 45358U 20018A   25341.29717252 -.00000050  00000+0  00000+0 0  9990",
        "tle_line2": "2 45358  64.4728 319.1607 0011744 249.0045 110.8633  2.13102386 44574"
      },
      "geometry": {
        "type": "Point",
        "coordinates": [
          83.05075169560247,
          60.063440979244184
        ]
      }
    },
    {
      "type": "Feature",
      "properties": {
        "norad_id": 45807,
        "name": "BEIDOU-3 G3 (C61)",
        "group": "gnss",
        "lat": -1.9301434094368912,
        "lon": -37.42279721695432,
        "alt_km": 35769.17210940152,
        "timestamp": "2025-12-08T08:59:01.009307+00:00",
        "meta_object_name": "BEIDOU-3 G3 (C61)",
        "meta_object_id": "2020-040A",
        "meta_epoch": "2025-12-07T22:43:12.465984",
        "meta_mean_motion": 1.0027613,
        "meta_eccentricity": 0.00059824,
        "meta_inclination": 1.9793,
        "meta_ra_of_asc_node": 66.5774,
        "meta_arg_of_pericenter": 306.2701,
        "meta_mean_anomaly": 155.4123,
        "meta_ephemeris_type": 0,
        "meta_classification_type": "U",
        "meta_norad_cat_id": 45807,
        "meta_element_set_no": 999,
        "meta_rev_at_epoch": 2015,
        "meta_bstar": 0,
        "meta_mean_motion_dot": -3.51e-06,
        "meta_mean_motion_ddot": 0,
        "tle_line1": "1 45807U 20040A   25341.94667206 -.00000351  00000+0  00000+0 0  9993",
        "tle_line2": "2 45807   1.9793  66.5774 0005982 306.2701 155.4123  1.00276130 20152"
      },
      "geometry": {
        "type": "Point",
        "coordinates": [
          -37.42279721695432,
          -1.9301434094368912
        ]
      }
    },
    {
      "type": "Feature",
      "properties": {
        "norad_id": 45854,
        "name": "GPS BIII-3  (PRN 23)",
        "group": "gnss",
        "lat": 52.47035144177302,
        "lon": 95.69910904653757,
        "alt_km": 20281.913019039068,
        "timestamp": "2025-12-08T08:59:01.009318+00:00",
        "meta_object_name": "GPS BIII-3  (PRN 23)",
        "meta_object_id": "2020-041A",
        "meta_epoch": "2025-12-07T06:57:27.444672",
        "meta_mean_motion": 2.00561718,
        "meta_eccentricity": 0.00603563,
        "meta_inclination": 56.5433,
        "meta_ra_of_asc_node": 36.3977,
        "meta_arg_of_pericenter": 203.2104,
        "meta_mean_anomaly": 166.2515,
        "meta_ephemeris_type": 0,
        "meta_classification_type": "U",
        "meta_norad_cat_id": 45854,
        "meta_element_set_no": 999,
        "meta_rev_at_epoch": 4019,
        "meta_bstar": 0,
        "meta_mean_motion_dot": -7.4e-07,
        "meta_mean_motion_ddot": 0,
        "tle_line1": "1 45854U 20041A   25341.28990098 -.00000074  00000+0  00000+0 0  9993",
        "tle_line2": "2 45854  56.5433  36.3977 0060356 203.2104 166.2515  2.00561718 40191"
      },
      "geometry": {
        "type": "Point",
        "coordinates": [
          95.69910904653757,
          52.47035144177302
        ]
      }
    },
    {
      "type": "Feature",
      "properties": {
        "norad_id": 46114,
        "name": "GALAXY 30 (WAAS/PRN 135)",
        "group": "gnss",
        "lat": 0.03833931904395253,
        "lon": 87.12091133081125,
        "alt_km": 35796.46770690756,
        "timestamp": "2025-12-08T08:59:01.009330+00:00",
        "meta_object_name": "GALAXY 30 (WAAS/PRN 135)",
        "meta_object_id": "2020-056C",
        "meta_epoch": "2025-12-07T16:27:51.213024",
        "meta_mean_motion": 1.00270815,
        "meta_eccentricity": 0.00024466,
        "meta_inclination": 0.0172,
        "meta_ra_of_asc_node": 342.6462,
        "meta_arg_of_pericenter": 273.2329,
        "meta_mean_anomaly": 302.7854,
        "meta_ephemeris_type": 0,
        "meta_classification_type": "U",
        "meta_norad_cat_id": 46114,
        "meta_element_set_no": 999,
        "meta_rev_at_epoch": 1937,
        "meta_bstar": 0,
        "meta_mean_motion_dot": 4e-07,
        "meta_mean_motion_ddot": 0,
        "tle_line1": "1 46114U 20056C   25341.68600941  .00000040  00000+0  00000+0 0  9990",
        "tle_line2": "2 46114   0.0172 342.6462 0002446 273.2329 302.7854  1.00270815 19372"
      },
      "geometry": {
        "type": "Point",
        "coordinates": [
          87.12091133081125,
          0.03833931904395253
        ]
      }
    },
    {
      "type": "Feature",
      "properties": {
        "norad_id": 46805,
        "name": "COSMOS 2547 (705K)",
        "group": "gnss",
        "lat": -33.69852673723215,
        "lon": -179.63218848426567,
        "alt_km": 19135.377255215593,
        "timestamp": "2025-12-08T08:59:01.009343+00:00",
        "meta_object_name": "COSMOS 2547 (705K)",
        "meta_object_id": "2020-075A",
        "meta_epoch": "2025-12-07T11:38:43.890144",
        "meta_mean_motion": 2.13099936,
        "meta_eccentricity": 0.00062259,
        "meta_inclination": 64.5959,
        "meta_ra_of_asc_node": 198.872,
        "meta_arg_of_pericenter": 228.8707,
        "meta_mean_anomaly": 131.1578,
        "meta_ephemeris_type": 0,
        "meta_classification_type": "U",
        "meta_norad_cat_id": 46805,
        "meta_element_set_no": 999,
        "meta_rev_at_epoch": 3982,
        "meta_bstar": 0,
        "meta_mean_motion_dot": 5.8e-07,
        "meta_mean_motion_ddot": 0,
        "tle_line1": "1 46805U 20075A   25341.48523021  .00000058  00000+0  00000+0 0  9998",
        "tle_line2": "2 46805  64.5959 198.8720 0006225 228.8707 131.1578  2.13099936 39827"
      },
      "geometry": {
        "type": "Point",
        "coordinates": [
          -179.63218848426567,
          -33.69852673723215
        ]
      }
    },
    {
      "type": "Feature",
      "properties": {
        "norad_id": 46826,
        "name": "GPS BIII-4  (PRN 14)",
        "group": "gnss",
        "lat": 33.498142507066426,
        "lon": -112.74916006734364,
        "alt_km": 20339.104189625094,
        "timestamp": "2025-12-08T08:59:01.009355+00:00",
        "meta_object_name": "GPS BIII-4  (PRN 14)",
        "meta_object_id": "2020-078A",
        "meta_epoch": "2025-11-12T03:01:29.191584",
        "meta_mean_motion": 2.00567032,
        "meta_eccentricity": 0.00639112,
        "meta_inclination": 54.0223,
        "meta_ra_of_asc_node": 219.5836,
        "meta_arg_of_pericenter": 203.4986,
        "meta_mean_anomaly": 326.7753,
        "meta_ephemeris_type": 0,
        "meta_classification_type": "U",
        "meta_norad_cat_id": 46826,
        "meta_element_set_no": 999,
        "meta_rev_at_epoch": 3715,
        "meta_bstar": 0,
        "meta_mean_motion_dot": -3.4e-07,
        "meta_mean_motion_ddot": 0,
        "tle_line1": "1 46826U 20078A   25316.12603231 -.00000034  00000+0  00000+0 0  9994",
        "tle_line2": "2 46826  54.0223 219.5836 0063911 203.4986 326.7753  2.00567032 37154"
      },
      "geometry": {
        "type": "Point",
        "coordinates": [
          -112.74916006734364,
          33.498142507066426
        ]
      }
    },
    {
      "type": "Feature",
      "properties": {
        "norad_id": 48859,
        "name": "GPS BIII-5  (PRN 11)",
        "group": "gnss",
        "lat": -38.255642517991504,
        "lon": -166.70255168769518,
        "alt_km": 20122.354968730255,
        "timestamp": "2025-12-08T08:59:01.009366+00:00",
        "meta_object_name": "GPS BIII-5  (PRN 11)",
        "meta_object_id": "2021-054A",
        "meta_epoch": "2025-11-30T17:12:22.002912",
        "meta_mean_motion": 2.00553932,
        "meta_eccentricity": 0.0024653,
        "meta_inclination": 55.2606,
        "meta_ra_of_asc_node": 340.4377,
        "meta_arg_of_pericenter": 232.9477,
        "meta_mean_anomaly": 227.2059,
        "meta_ephemeris_type": 0,
        "meta_classification_type": "U",
        "meta_norad_cat_id": 48859,
        "meta_element_set_no": 999,
        "meta_rev_at_epoch": 3277,
        "meta_bstar": 0,
        "meta_mean_motion_dot": -5.5e-07,
        "meta_mean_motion_ddot": 0,
        "tle_line1": "1 48859U 21054A   25334.71692133 -.00000055  00000+0  00000+0 0  9994",
        "tle_line2": "2 48859  55.2606 340.4377 0024653 232.9477 227.2059  2.00553932 32777"
      },
      "geometry": {
        "type": "Point",
        "coordinates": [
          -166.70255168769518,
          -38.255642517991504
        ]
      }
    }
  ]
}